{"type": "FeatureCollection", "features": [ {"type": "Feature", "properties": {"norad_id": 34546, "name": "COSMOS 2251 DEB", "group": "cosmos-2251-debris", "lat": 37.511918080878516, "lon": 72.18778662653483, "alt_km": 752.440758361241, "timestamp": "2025-12-04T07:39:36.526331+00:00", "meta": {"OBJECT_NAME": "COSMOS 2251 DEB", "OBJECT_ID": "1993-036UG", "EPOCH": "2025-12-03T14:41:22.549920", "MEAN_MOTION": 14.45338687, "ECCENTRICITY": 0.00217033, "INCLINATION": 74.0315, "RA_OF_ASC_NODE": 266.2033, "ARG_OF_PERICENTER": 340.9322, "MEAN_ANOMALY": 81.8588, "EPHEMERIS_TYPE": 0, "CLASSIFICATION_TYPE": "U", "NORAD_CAT_ID": 34546, "ELEMENT_SET_NO": 999, "REV_AT_EPOCH": 87894, "BSTAR": 0.0010880598, "MEAN_MOTION_DOT": 3.809e-05, "MEAN_MOTION_DDOT": 0}, "tle": {"line1": "1 34546U 93036UG  25337.61206655  .00003809  00000+0  10881-2 0  9993", "line2": "2 34546  74.0315 266.2033 0021703 340.9322  81.8588 14.45338687878945"}}, "geometry": {"type": "Point", "coordinates": [72.18778662653483, 37.511918080878516]}}, {"type": "Feature", "properties": {"norad_id": 34547, "name": "COSMOS 2251 DEB", "group": "cosmos-2251-debris", "lat": -54.46730524601077, "lon": -39.246025731872415, "alt_km": 651.4240666157111, "timestamp": "2025-12-04T07:39:36.526341+00:00", "meta": {"OBJECT_NAME": "COSMOS 2251 DEB", "OBJECT_ID": "1993-036UH", "EPOCH": "2025-12-02T10:32:28.829184", "MEAN_MOTION": 14.71896843, "ECCENTRICITY": 0.00189154, "INCLINATION": 74.0295, "RA_OF_ASC_NODE": 120.7688, "ARG_OF_PERICENTER": 201.1584, "MEAN_ANOMALY": 158.8808, "EPHEMERIS_TYPE": 0, "CLASSIFICATION_TYPE": "U", "NORAD_CAT_ID": 34547, "ELEMENT_SET_NO": 999, "REV_AT_EPOCH": 88370, "BSTAR": 0.0023605263, "MEAN_MOTION_DOT": 0.00014826, "MEAN_MOTION_DDOT": 0}, "tle": {"line1": "1 34547U 93036UH  25336.43922256  .00014826  00000+0  23605-2 0  9994", "line2": "2 34547  74.0295 120.7688 0018915 201.1584 158.8808 14.71896843883704"}}, "geometry": {"type": "Point", "coordinates": [-39.246025731872415, -54.46730524601077]}}, {"type": "Feature", "properties": {"norad_id": 34553, "name": "COSMOS 2251 DEB", "group": "cosmos-2251-debris", "lat": -32.10120704539567, "lon": 38.26116465101037, "alt_km": 702.4833431453317, "timestamp": "2025-12-04T07:39:36.526350+00:00", "meta": {"OBJECT_NAME": "COSMOS 2251 DEB", "OBJECT_ID": "1993-036UP", "EPOCH": "2025-12-03T19:43:22.717344", "MEAN_MOTION": 14.5758442, "ECCENTRICITY": 0.00196375, "INCLINATION": 74.0256, "RA_OF_ASC_NODE": 208.8546, "ARG_OF_PERICENTER": 287.0271, "MEAN_ANOMALY": 197.7896, "EPHEMERIS_TYPE": 0, "CLASSIFICATION_TYPE": "U", "NORAD_CAT_ID": 34553, "ELEMENT_SET_NO": 999, "REV_AT_EPOCH": 87966, "BSTAR": 0.0022178927, "MEAN_MOTION_DOT": 0.00010111, "MEAN_MOTION_DDOT": 0}, "tle": {"line1": "1 34553U 93036UP  25337.82179071  .00010111  00000+0  22179-2 0  9992", "line2": "2 34553  74.0256 208.8546 0019637 287.0271 197.7896 14.57584420879665"}}, "geometry": {"type": "Point", "coordinates": [38.26116465101037, -32.10120704539567]}}, {"type": "Feature", "properties": {"norad_id": 34554, "name": "COSMOS 2251 DEB", "group": "cosmos-2251-debris", "lat": -16.802678433665896, "lon": 139.455921370197, "alt_km": 786.0447654441723, "timestamp": "2025-12-04T07:39:36.526359+00:00", "meta": {"OBJECT_NAME": "COSMOS 2251 DEB", "OBJECT_ID": "1993-036UQ", "EPOCH": "2025-12-02T18:19:59.022048", "MEAN_MOTION": 14.37902673, "ECCENTRICITY": 0.00225472, "INCLINATION": 74.0383, "RA_OF_ASC_NODE": 317.3604, "ARG_OF_PERICENTER": 22.1475, "MEAN_ANOMALY": 47.5558, "EPHEMERIS_TYPE": 0, "CLASSIFICATION_TYPE": "U", "NORAD_CAT_ID": 34554, "ELEMENT_SET_NO": 999, "REV_AT_EPOCH": 87612, "BSTAR": 0.0004572497, "MEAN_MOTION_DOT": 1.358e-05, "MEAN_MOTION_DDOT": 0}, "tle": {"line1": "1 34554U 93036UQ  25336.76387757  .00001358  00000+0  45725-3 0  9993", "line2": "2 34554  74.0383 317.3604 0022547  22.1475  47.5558 14.37902673876123"}}, "geometry": {"type": "Point", "coordinates": [139.455921370197, -16.802678433665896]}}, {"type": "Feature", "properties": {"norad_id": 34556, "name": "COSMOS 2251 DEB", "group": "cosmos-2251-debris", "lat": -51.663550389454485, "lon": -17.347166367456175, "alt_km": 639.0472479714126, "timestamp": "2025-12-04T07:39:36.526368+00:00", "meta": {"OBJECT_NAME": "COSMOS 2251 DEB", "OBJECT_ID": "1993-036US", "EPOCH": "2025-12-03T13:00:49.758912", "MEAN_MOTION": 14.77311373, "ECCENTRICITY": 0.00091481, "INCLINATION": 74.0147, "RA_OF_ASC_NODE": 142.9242, "ARG_OF_PERICENTER": 201.3806, "MEAN_ANOMALY": 222.8784, "EPHEMERIS_TYPE": 0, "CLASSIFICATION_TYPE": "U", "NORAD_CAT_ID": 34556, "ELEMENT_SET_NO": 999, "REV_AT_EPOCH": 88193, "BSTAR": 0.0032519237, "MEAN_MOTION_DOT": 0.00023155, "MEAN_MOTION_DDOT": 0}, "tle": {"line1": "1 34556U 93036US  25337.54224258  .00023155  00000+0  32519-2 0  9993", "line2": "2 34556  74.0147 142.9242 0009148 201.3806 222.8784 14.77311373881933"}}, "geometry": {"type": "Point", "coordinates": [-17.347166367456175, -51.663550389454485]}}, {"type": "Feature", "properties": {"norad_id": 34560, "name": "COSMOS 2251 DEB", "group": "cosmos-2251-debris", "lat": -57.57486653306428, "lon": 131.70602409693572, "alt_km": 656.7453227873211, "timestamp": "2025-12-04T07:39:36.526377+00:00", "meta": {"OBJECT_NAME": "COSMOS 2251 DEB", "OBJECT_ID": "1993-036UW", "EPOCH": "2025-12-03T06:37:21.000000", "MEAN_MOTION": 14.71719361, "ECCENTRICITY": 0.0015384, "INCLINATION": 74.0159, "RA_OF_ASC_NODE": 160.5584, "ARG_OF_PERICENTER": 241.2457, "MEAN_ANOMALY": 292.2217, "EPHEMERIS_TYPE": 0, "CLASSIFICATION_TYPE": "U", "NORAD_CAT_ID": 34560, "ELEMENT_SET_NO": 999, "REV_AT_EPOCH": 88112, "BSTAR": 0.0026421, "MEAN_MOTION_DOT": 0.00016519, "MEAN_MOTION_DDOT": 0}, "tle": {"line1": "1 34560U 93036UW  25337.27593750  .00016519  00000+0  26421-2 0  9995", "line2": "2 34560  74.0159 160.5584 0015384 241.2457 292.2217 14.71719361881126"}}, "geometry": {"type": "Point", "coordinates": [131.70602409693572, -57.57486653306428]}}, {"type": "Feature", "properties": {"norad_id": 34563, "name": "COSMOS 2251 DEB", "group": "cosmos-2251-debris", "lat": 60.55896908948689, "lon": 8.959524605515357, "alt_km": 740.2759041950521, "timestamp": "2025-12-04T07:39:36.526386+00:00", "meta": {"OBJECT_NAME": "COSMOS 2251 DEB", "OBJECT_ID": "1993-036UZ", "EPOCH": "2025-12-03T11:30:53.615808", "MEAN_MOTION": 14.46460045, "ECCENTRICITY": 0.00137712, "INCLINATION": 74.0388, "RA_OF_ASC_NODE": 220.9949, "ARG_OF_PERICENTER": 315.3305, "MEAN_ANOMALY": 110.513, "EPHEMERIS_TYPE": 0, "CLASSIFICATION_TYPE": "U", "NORAD_CAT_ID": 34563, "ELEMENT_SET_NO": 999, "REV_AT_EPOCH": 88063, "BSTAR": 0.0007235832, "MEAN_MOTION_DOT": 2.579e-05, "MEAN_MOTION_DDOT": 0}, "tle": {"line1": "1 34563U 93036UZ  25337.47978722  .00002579  00000+0  72358-3 0  9998", "line2": "2 34563  74.0388 220.9949 0013771 315.3305 110.5130 14.46460045880637"}}, "geometry": {"type": "Point", "coordinates": [8.959524605515357, 60.55896908948689]}}, {"type": "Feature", "properties": {"norad_id": 34564, "name": "COSMOS 2251 DEB", "group": "cosmos-2251-debris", "lat": 64.58558010592017, "lon": -69.35495724014439, "alt_km": 745.2756760949524, "timestamp": "2025-12-04T07:39:36.526396+00:00", "meta": {"OBJECT_NAME": "COSMOS 2251 DEB", "OBJECT_ID": "1993-036VA", "EPOCH": "2025-12-03T19:55:54.547680", "MEAN_MOTION": 14.40664101, "ECCENTRICITY": 0.00186559, "INCLINATION": 74.0328, "RA_OF_ASC_NODE": 254.4939, "ARG_OF_PERICENTER": 0.0974, "MEAN_ANOMALY": 56.2427, "EPHEMERIS_TYPE": 0, "CLASSIFICATION_TYPE": "U", "NORAD_CAT_ID": 34564, "ELEMENT_SET_NO": 999, "REV_AT_EPOCH": 87878, "BSTAR": 0.00040855683, "MEAN_MOTION_DOT": 1.281e-05, "MEAN_MOTION_DDOT": 0}, "tle": {"line1": "1 34564U 93036VA  25337.83049245  .00001281  00000+0  40856-3 0  9995", "line2": "2 34564  74.0328 254.4939 0018655   0.0974  56.2427 14.40664101878780"}}, "geometry": {"type": "Point", "coordinates": [-69.35495724014439, 64.58558010592017]}}, {"type": "Feature", "properties": {"norad_id": 34567, "name": "COSMOS 2251 DEB", "group": "cosmos-2251-debris", "lat": -71.67467349468245, "lon": 51.70779645312397, "alt_km": 766.4352369619792, "timestamp": "2025-12-04T07:39:36.526405+00:00", "meta": {"OBJECT_NAME": "COSMOS 2251 DEB", "OBJECT_ID": "1993-036VD", "EPOCH": "2025-12-03T20:23:50.208288", "MEAN_MOTION": 14.2400273, "ECCENTRICITY": 0.00746677, "INCLINATION": 74.0399, "RA_OF_ASC_NODE": 172.7799, "ARG_OF_PERICENTER": 248.9156, "MEAN_ANOMALY": 126.9704, "EPHEMERIS_TYPE": 0, "CLASSIFICATION_TYPE": "U", "NORAD_CAT_ID": 34567, "ELEMENT_SET_NO": 999, "REV_AT_EPOCH": 86998, "BSTAR": 0.00034973906, "MEAN_MOTION_DOT": 8e-06, "MEAN_MOTION_DDOT": 0}, "tle": {"line1": "1 34567U 93036VD  25337.84988667  .00000800  00000+0  34974-3 0  9999", "line2": "2 34567  74.0399 172.7799 0074667 248.9156 126.9704 14.24002730869988"}}, "geometry": {"type": "Point", "coordinates": [51.70779645312397, -71.67467349468245]}}, {"type": "Feature", "properties": {"norad_id": 34569, "name": "COSMOS 2251 DEB", "group": "cosmos-2251-debris", "lat": 42.67877796540084, "lon": -131.2869756216594, "alt_km": 692.8272325982389, "timestamp": "2025-12-04T07:39:36.526414+00:00", "meta": {"OBJECT_NAME": "COSMOS 2251 DEB", "OBJECT_ID": "1993-036VF", "EPOCH": "2025-12-03T18:15:52.797600", "MEAN_MOTION": 14.24710596, "ECCENTRICITY": 0.01568776, "INCLINATION": 73.9904, "RA_OF_ASC_NODE": 214.3703, "ARG_OF_PERICENTER": 44.8398, "MEAN_ANOMALY": 18.4812, "EPHEMERIS_TYPE": 0, "CLASSIFICATION_TYPE": "U", "NORAD_CAT_ID": 34569, "ELEMENT_SET_NO": 999, "REV_AT_EPOCH": 86840, "BSTAR": 0.00079808647, "MEAN_MOTION_DOT": 2.086e-05, "MEAN_MOTION_DDOT": 0}, "tle": {"line1": "1 34569U 93036VF  25337.76102775  .00002086  00000+0  79809-3 0  9994", "line2": "2 34569  73.9904 214.3703 0156877  44.8398  18.4812 14.24710596868400"}}, "geometry": {"type": "Point", "coordinates": [-131.2869756216594, 42.67877796540084]}}]}